IRIDIUM 144             
1 43249U 18030A   25127.87550300  .00000231  00000+0  75531-4 0  9999
2 43249  86.3929  99.8608 0002400  90.1972 269.9499 14.34217960372046
IRIDIUM 149             
1 43250U 18030B   25128.16091965  .00000308  00000+0  10278-3 0  9992
2 43250  86.3928  99.7129 0002432  89.6614 270.4860 14.34217895372108
IRIDIUM 157             
1 43251U 18030C   25127.90087231  .00000293  00000+0  97719-4 0  9994
2 43251  86.3929  99.8660 0002276  80.6552 279.4901 14.34217059372049
IRIDIUM 140             
1 43252U 18030D   25128.19897486  .00000089  00000+0  24687-4 0  9995
2 43252  86.3930  99.7551 0002343  92.4676 267.6788 14.34217029372143
IRIDIUM 145             
1 43253U 18030E   25127.90721209  .00000050  00000+0  10868-4 0  9997
2 43253  86.3930  99.8498 0002621  93.4330 266.7166 14.34216134372036
IRIDIUM 146             
1 43254U 18030F   25127.88818808  .00000072  00000+0  18800-4 0  9995
2 43254  86.3931  99.8717 0002624  93.1278 267.0218 14.34217887372042
IRIDIUM 148             
1 43255U 18030G   25127.85647674  .00000385  00000+0  13052-3 0  9994
2 43255  86.3930  99.9216 0002534  85.7669 274.3816 14.34217826372079
IRIDIUM 142             
1 43256U 18030H   25128.17360609  .00000166  00000+0  52184-4 0  9998
2 43256  86.3927  99.6927 0002737  91.5552 268.5957 14.34218019372080
